ONEWEB-0247             
1 48777U 21045L   23290.46060459  .00000227  00000+0  56817-3 0  9995
2 48777  87.8955  93.0675 0001903  70.3793 289.7543 13.15549153116383
ONEWEB-0245             
1 48778U 21045M   23290.45636213  .00000178  00000+0  43825-3 0  9992
2 48778  87.8942  93.0792 0001384  81.6801 278.4486 13.15546209116355
ONEWEB-0229             
1 48779U 21045N   23290.52610627  .00000159  00000+0  38807-3 0  9995
2 48779  87.8942  93.0549 0001848  83.9194 276.2147 13.15547281117522
ONEWEB-0228             
1 48780U 21045P   23290.46378570  .00000037  00000+0  65286-4 0  9995
2 48780  87.8943  93.0475 0001722  85.3109 274.8218 13.15548255116306
ONEWEB-0232             
1 48781U 21045Q   23290.45850172  .00000911  00000+0  23851-2 0  9999
2 48781  87.8893  93.1106 0001655  92.7624 267.3696 13.15551133116623
ONEWEB-0231             
1 48782U 21045R   23290.51342699  .00000215  00000+0  53703-3 0  9994
2 48782  87.8950  93.0640 0001781  79.8379 280.2953 13.15548510116325
ONEWEB-0234             
1 48783U 21045S   23290.45954723  .00000159  00000+0  38743-3 0  9999
2 48783  87.8945  93.0545 0000983 155.2137 204.9041 13.15552358116458
ONEWEB-0238             
1 48784U 21045T   23290.47220106  .00000064  00000+0  13641-3 0  9998
2 48784  87.8946  93.0627 0001489  92.4328 267.6973 13.15547435116356
